STARLINK-1507           
1 45748C 20038U   20251.77322561  .00001139  00000-0  78038-4 0  2519
2 45748  53.0001 254.9911 0001035  76.4897  56.1224 15.05570622    14